OBJECT_NAME,OBJECT_ID,EPOCH,MEAN_MOTION,ECCENTRICITY,INCLINATION,RA_OF_ASC_NODE,ARG_OF_PERICENTER,MEAN_ANOMALY,EPHEMERIS_TYPE,CLASSIFICATION_TYPE,NORAD_CAT_ID,ELEMENT_SET_NO,REV_AT_EPOCH,BSTAR,MEAN_MOTION_DOT,MEAN_MOTION_DDOT
KUIPER-00560,2026-140AH,2026-07-11T13:12:18.764352,15.38797580,.00088299,51.8792,280.7614,295.2818,64.7254,0,U,69623,999,498,.36564319E-3,.13892E-3,0
KUIPER-00561,2026-140AJ,2026-07-11T17:56:40.634592,15.38107852,.00092458,51.8826,279.8412,285.6749,74.3218,0,U,69624,999,501,-.15960765E-1,-.566727E-2,0
KUIPER-00564,2026-140AK,2026-07-11T13:17:28.081536,15.37273245,.00093758,51.8812,280.7881,286.2520,73.7435,0,U,69625,999,498,.27355671E-3,.9777E-4,0
KUIPER-00567,2026-140AL,2026-07-10T18:25:40.629504,15.37993440,.00142138,51.8786,284.5160,269.5283,90.4076,0,U,69626,999,486,.54503294E-2,.213007E-2,0
KUIPER-00573,2026-140AM,2026-07-11T11:54:24.402528,15.37412133,.00092307,51.8794,281.1424,272.3380,87.6550,0,U,69627,999,497,.38987856E-3,.14175E-3,0
KZ-11 R/B,2026-138H,2026-07-12T00:01:30.732096,15.41636513,.0382453,55.1529,171.8512,141.3514,221.5565,0,U,69628,999,375,.71328E-3,.725756E-2,.97322E-5
CENTISPACE-1 GROUP 05 OBJECT J,2026-138J,2026-07-11T23:49:29.406144,14.15842737,.0009418,55.1383,189.5194,338.0414,22.0155,0,U,69636,999,350,-.72013E-4,-.296E-5,0
VICTUS HAZE PUMA,2026-142A,2026-07-12T03:40:09.435936,15.20835042,.0025063,97.4474,90.4917,277.2116,82.6270,0,U,69646,999,346,.10269E-3,.2213E-4,0
HOKUSHIN-1,1998-067YH,2026-07-11T21:04:13.120032,15.50892630,.00061487,51.6304,177.6950,318.2194,41.8325,0,U,69648,999,348,.25124751E-3,.14373E-3,0
STARLINK-37656,2026-143A,2026-07-12T01:14:04.282944,15.49223123,.0001708,97.2853,236.9044,107.3717,252.7721,0,U,69649,999,439,.62851E-3,.34283E-3,0
STARLINK-37646,2026-143B,2026-07-12T04:00:01.998720,15.49149102,.0001873,97.2852,237.1967,80.7891,252.5231,0,U,69650,999,447,.22908E-3,.12371E-3,0
STARLINK-37749,2026-143C,2026-07-12T04:00:01.998720,15.49195414,.0000646,97.2851,237.1803,125.4084,169.4848,0,U,69651,999,447,-.35836E-4,-.2039E-4,0
STARLINK-37819,2026-143D,2026-07-12T04:00:01.998720,15.49199139,.0001649,97.2848,237.1536,58.2915,172.2188,0,U,69652,999,447,-.40991E-5,-.314E-5,0
STARLINK-37729,2026-143E,2026-07-12T04:00:01.998720,15.83057964,.0001183,97.2825,237.3861,195.0157,221.5353,0,U,69653,999,447,.43554E-4,.9115E-4,0
STARLINK-37838,2026-143F,2026-07-12T04:00:01.998720,15.49169929,.0001668,97.2851,237.2224,53.5241,342.0289,0,U,69654,999,447,.3774E-3,.20475E-3,0
STARLINK-37884,2026-143G,2026-07-12T04:00:01.998720,15.49193768,.0001144,97.2850,237.1344,82.5803,101.3483,0,U,69655,999,447,.2646E-3,.14329E-3,0
STARLINK-37876,2026-143H,2026-07-12T04:00:01.998720,15.49183759,.0001321,97.2847,237.2229,89.2326,303.8980,0,U,69656,999,437,.16944E-3,.9134E-4,0
STARLINK-37784,2026-143J,2026-07-12T04:00:01.998720,15.49199102,.0001716,97.2847,237.1508,67.9100,157.6527,0,U,69657,999,437,.51068E-5,.187E-5,0
STARLINK-37851,2026-143K,2026-07-12T04:00:01.998720,15.49191959,.0000852,97.2846,237.2167,86.4691,294.6408,0,U,69658,999,436,.66365E-4,.3521E-4,0
STARLINK-37229,2026-143L,2026-07-12T04:00:01.998720,15.49198178,.0001518,97.2854,237.1708,85.9159,186.5356,0,U,69659,999,441,.58084E-4,.3071E-4,0
STARLINK-37556,2026-143M,2026-07-12T04:00:01.998720,15.49196302,.0001324,97.2851,237.1991,88.3569,248.0356,0,U,69660,999,441,.14594E-3,.7857E-4,0
STARLINK-37867,2026-143N,2026-07-12T04:00:01.998720,15.49189857,.0001825,97.2850,237.2153,78.9549,300.6508,0,U,69661,999,437,.7512E-5,.318E-5,0
STARLINK-37852,2026-143P,2026-07-12T04:00:01.998720,15.49199249,.0001342,97.2849,237.1419,73.6698,128.9720,0,U,69662,999,437,.20584E-3,.11124E-3,0
STARLINK-37554,2026-143Q,2026-07-12T04:00:01.998720,15.49195896,.0000981,97.2852,237.1933,63.8430,263.0727,0,U,69663,999,441,-.35911E-4,-.2043E-4,0
STARLINK-37830,2026-143R,2026-07-12T04:00:01.998720,15.49197149,.000165,97.2850,237.1573,87.4144,155.2450,0,U,69664,999,436,-.33905E-4,-.1935E-4,0
STARLINK-37837,2026-143S,2026-07-12T04:00:01.998720,15.49186991,.0001374,97.2849,237.2258,54.9531,330.5519,0,U,69665,999,437,.50606E-3,.27527E-3,0
STARLINK-37943,2026-143T,2026-07-12T04:00:01.998720,15.49211934,.000163,97.2852,237.1603,74.2666,171.3204,0,U,69666,999,437,.19934E-3,.10774E-3,0
STARLINK-37941,2026-143U,2026-07-12T04:00:01.998720,15.49212087,.0001414,97.2854,237.1884,49.0808,266.8955,0,U,69667,999,437,-.11992E-3,-.6612E-4,0
STARLINK-37930,2026-143V,2026-07-12T04:00:01.998720,15.49196099,.0001162,97.2854,237.1911,77.6567,241.3371,0,U,69668,999,436,.11E-3,.5898E-4,0
STARLINK-37945,2026-143W,2026-07-12T04:00:01.998720,15.49194201,.0001266,97.2847,237.2194,75.1667,315.7101,0,U,69669,999,437,.45691E-4,.2396E-4,0
