KUIPER-00560            
1 69623U 26140AH  26192.55021718  .00013892  00000+0  36564-3 0  9997
2 69623  51.8792 280.7614 0008829 295.2818  64.7254 15.38797580  4982
KUIPER-00561            
1 69624U 26140AJ  26192.74769253 -.00566727  00000+0 -15961-1 0  9990
2 69624  51.8826 279.8412 0009245 285.6749  74.3218 15.38107852  5014
KUIPER-00564            
1 69625U 26140AK  26192.55379724  .00009777  00000+0  27356-3 0  9998
2 69625  51.8812 280.7881 0009375 286.2520  73.7435 15.37273245  4987
KUIPER-00567            
1 69626U 26140AL  26191.76783136  .00213007  00000+0  54503-2 0  9993
2 69626  51.8786 284.5160 0014213 269.5283  90.4076 15.37993440  4867
KUIPER-00573            
1 69627U 26140AM  26192.49611577  .00014175  00000+0  38988-3 0  9999
2 69627  51.8794 281.1424 0009230 272.3380  87.6550 15.37412133  4978
KZ-11 R/B               
1 69628U 26138H   26193.00105014  .00725756  97322-5  71328-3 0  9997
2 69628  55.1529 171.8512 0382453 141.3514 221.5565 15.41636513  3755
CENTISPACE-1 GROUP 05 O*
1 69636U 26138J   26192.99270146 -.00000296  00000+0 -72013-4 0  9993
2 69636  55.1383 189.5194 0009418 338.0414  22.0155 14.15842737  3504
VICTUS HAZE PUMA        
1 69646U 26142A   26193.15288699  .00002213  00000+0  10269-3 0  9993
2 69646  97.4474  90.4917 0025063 277.2116  82.6270 15.20835042  3468
HOKUSHIN-1              
1 69648U 98067YH  26192.87792963  .00014373  00000+0  25125-3 0  9999
2 69648  51.6304 177.6950 0006148 318.2194  41.8325 15.50892630  3483
STARLINK-37656          
1 69649U 26143A   26193.05143846  .00034283  00000+0  62851-3 0  9996
2 69649  97.2853 236.9044 0001708 107.3717 252.7721 15.49223123  4394
STARLINK-37646          
1 69650U 26143B   26193.16668980  .00012371  00000+0  22908-3 0  9994
2 69650  97.2852 237.1967 0001873  80.7891 252.5231 15.49149102  4479
STARLINK-37749          
1 69651U 26143C   26193.16668980 -.00002039  00000+0 -35836-4 0  9992
2 69651  97.2851 237.1803 0000646 125.4084 169.4848 15.49195414  4473
STARLINK-37819          
1 69652U 26143D   26193.16668980 -.00000314  00000+0 -40991-5 0  9996
2 69652  97.2848 237.1536 0001649  58.2915 172.2188 15.49199139  4470
STARLINK-37729          
1 69653U 26143E   26193.16668980  .00009115  00000+0  43554-4 0  9990
2 69653  97.2825 237.3861 0001183 195.0157 221.5353 15.83057964  4479
STARLINK-37838          
1 69654U 26143F   26193.16668980  .00020475  00000+0  37740-3 0  9992
2 69654  97.2851 237.2224 0001668  53.5241 342.0289 15.49169929  4475
STARLINK-37884          
1 69655U 26143G   26193.16668980  .00014329  00000+0  26460-3 0  9991
2 69655  97.2850 237.1344 0001144  82.5803 101.3483 15.49193768  4472
STARLINK-37876          
1 69656U 26143H   26193.16668980  .00009134  00000+0  16944-3 0  9996
2 69656  97.2847 237.2229 0001321  89.2326 303.8980 15.49183759  4372
STARLINK-37784          
1 69657U 26143J   26193.16668980  .00000187  00000+0  51068-5 0  9994
2 69657  97.2847 237.1508 0001716  67.9100 157.6527 15.49199102  4374
STARLINK-37851          
1 69658U 26143K   26193.16668980  .00003521  00000+0  66365-4 0  9995
2 69658  97.2846 237.2167 0000852  86.4691 294.6408 15.49191959  4368
STARLINK-37229          
1 69659U 26143L   26193.16668980  .00003071  00000+0  58084-4 0  9995
2 69659  97.2854 237.1708 0001518  85.9159 186.5356 15.49198178  4418
STARLINK-37556          
1 69660U 26143M   26193.16668980  .00007857  00000+0  14594-3 0  9990
2 69660  97.2851 237.1991 0001324  88.3569 248.0356 15.49196302  4419
STARLINK-37867          
1 69661U 26143N   26193.16668980  .00000318  00000+0  75120-5 0  9990
2 69661  97.2850 237.2153 0001825  78.9549 300.6508 15.49189857  4375
STARLINK-37852          
1 69662U 26143P   26193.16668980  .00011124  00000+0  20584-3 0  9990
2 69662  97.2849 237.1419 0001342  73.6698 128.9720 15.49199249  4372
STARLINK-37554          
1 69663U 26143Q   26193.16668980 -.00002043  00000+0 -35911-4 0  9994
2 69663  97.2852 237.1933 0000981  63.8430 263.0727 15.49195896  4418
STARLINK-37830          
1 69664U 26143R   26193.16668980 -.00001935  00000+0 -33905-4 0  9995
2 69664  97.2850 237.1573 0001650  87.4144 155.2450 15.49197149  4367
STARLINK-37837          
1 69665U 26143S   26193.16668980  .00027527  00000+0  50606-3 0  9995
2 69665  97.2849 237.2258 0001374  54.9531 330.5519 15.49186991  4377
STARLINK-37943          
1 69666U 26143T   26193.16668980  .00010774  00000+0  19934-3 0  9991
2 69666  97.2852 237.1603 0001630  74.2666 171.3204 15.49211934  4372
STARLINK-37941          
1 69667U 26143U   26193.16668980 -.00006612  00000+0 -11992-3 0  9996
2 69667  97.2854 237.1884 0001414  49.0808 266.8955 15.49212087  4377
STARLINK-37930          
1 69668U 26143V   26193.16668980  .00005898  00000+0  11000-3 0  9990
2 69668  97.2854 237.1911 0001162  77.6567 241.3371 15.49196099  4361
STARLINK-37945          
1 69669U 26143W   26193.16668980  .00002396  00000+0  45691-4 0  9995
2 69669  97.2847 237.2194 0001266  75.1667 315.7101 15.49194201  4378
